#aV2007  8  4  0  0   .00000000      96 DD+AD WGS84 FIT  NGA
## 1438 518400.00000000   900.00000000 54316  .0000000000000
+   31     1  2  3  4  5  6  7  8  9 10 11 12 13 14 16 17 18
+         19 20 21 22 23 24 25 26 27 28 29 30 31 32  0  0  0
+          0  0  0  0  0  0  0  0  0  0  0  0  0  0  0  0  0
+          0  0  0  0  0  0  0  0  0  0  0  0  0  0  0  0  0
+          0  0  0  0  0  0  0  0  0  0  0  0  0  0  0  0  0
++         0  0  0  0  0  0  0  0  0  0  0  0  0  0  0  0  0
++         0  0  0  0  0  0  0  0  0  0  0  0  0  0  0  0  0
++         0  0  0  0  0  0  0  0  0  0  0  0  0  0  0  0  0
++         0  0  0  0  0  0  0  0  0  0  0  0  0  0  0  0  0
++         0  0  0  0  0  0  0  0  0  0  0  0  0  0  0  0  0
%c cc cc ccc ccc cccc cccc cccc cccc ccccc ccccc ccccc ccccc
%c cc cc ccc ccc cccc cccc cccc cccc ccccc ccccc ccccc ccccc
%f  0.0000000  0.000000000  0.00000000000  0.000000000000000
%f  0.0000000  0.000000000  0.00000000000  0.000000000000000
%i    0    0    0    0      0      0      0      0         0
%i    0    0    0    0      0      0      0      0         0
/*      NGA, ST. LOUIS,MO.                                  
/*   EPHEMERIS COMPUTED FROM  3 DAYS OF DATA                
/* CCCCCCCCCCCCCCCCCCCCCCCCCCCCCCCCCCCCCCCCCCCCCCCCCCCCCCCCC
/* CCCCCCCCCCCCCCCCCCCCCCCCCCCCCCCCCCCCCCCCCCCCCCCCCCCCCCCCC
*  2007  8  4 21  0   .00000000                                                 
P  1  14315.307341 -13159.485640 -17846.297988    144.043487                    
V  1  -2985.445450  22883.582159 -19117.514923       .023241                    
P  2 -22504.782466  12977.077380   4491.070817    126.652112                    
V  2  -6903.482710   -912.145485 -30907.095976       .027976                    
P  3  10869.002614 -19711.754457  13612.318377     96.650347                    
V  3   2724.347522  17966.819299  23812.156227       .055435                    
P  4 -25468.797626   5141.060879  -6418.214725      3.389897                    
V  4   6374.421332  -5623.483711 -29760.063215      -.020667                    
P  5  11338.264001  19584.808372 -14273.850516    256.608962                    
V  5 -16219.126969  -7482.363341 -23409.071208       .409892                    
P  6   8612.035865  20831.286074  14211.112658    243.136913                    
V  6  -4380.096626  17478.803910 -23313.771309       .032687                    
P  7  10597.990379  18594.247723  16042.733043    166.954515                    
V  7  -3701.453105  19633.081133 -20811.430654      -.213833                    
P  8 -22496.843903  -2078.995515  14207.999351   -117.610213                    
V  8  16479.057151  -7443.297934  24366.722776      -.015018                    
P  9  -5347.784188  17483.122234 -19804.866781     81.752640                    
V  9 -22199.991727   8907.265480  14505.387380       .017367                    
P 10 -12786.576233   8690.520225  21515.523882    105.694082                    
V 10 -21217.903593 -17545.595658  -5183.958763       .004230                    
P 11   1752.179143 -18863.149007 -18626.191530     21.664011                    
V 11  21337.770256 -10803.766815  13329.267531       .006277                    
P 12   4908.755039  19215.283466 -17596.528506    -51.613065                    
V 12 -18851.188671 -12420.994746 -18649.552374      -.012392                    
P 13  -6464.652047 -20743.857292  15186.647962    195.622657                    
V 13   4529.019300 -18909.927774 -23707.078962       .030863                    
P 14  14455.715968   1804.473834 -22122.624354     33.678409                    
V 14  -4245.181560  27896.515867   -584.940685       .021107                    
P 16  17153.673738  -4096.977274  19986.687457    167.256538                    
V 16  19082.338762  16410.443900 -12907.682576       .024821                    
P 17 -14739.541963  -4239.460995 -21672.181717     58.884259                    
V 17   3986.300502 -27271.267692   2489.065885      -.012718                    
P 18  19852.535997  17888.765275   1427.158849   -241.856587                    
V 18  -3017.264239   1093.119502  31270.435588       .014470                    
P 19   7472.744149 -25198.941165   3404.090127     55.894049                    
V 19   2110.970563   4723.402973  31371.922807       .027940                    
P 20  -7933.208447 -19950.728616 -15761.370700    -27.679440                    
V 20  17131.776386  10212.303507 -21661.225817      -.005048                    
P 21  15863.370423   9282.107113  19501.873631     78.680745                    
V 21 -22385.060516   9705.463222  13097.647483      -.000083                    
P 22  22539.082050   9365.807623 -10370.820979    193.231964                    
V 22   8433.210686  10782.704144  27604.209126       .011806                    
P 23   -898.950598 -25655.571470   6260.547684    188.044533                    
V 23   3640.371039  -7682.508228 -30778.593064       .035176                    
P 24   2448.514935  15423.342687  21706.793164     20.387260                    
V 24 -25586.465211   8875.862049  -3169.706989       .028633                    
P 25  -8615.295085 -12828.207855  21960.526537    395.084958                    
V 25  23784.866541 -12842.486816   2009.889425       .146910                    
P 26  -8530.483357  23772.525634   6770.905083   -347.435697                    
V 26   -649.040743  -9551.740414  31239.134300      -.225670                    
P 27 -15769.973482  -8112.753634  20487.393877    126.847634                    
V 27  21688.322450 -11454.255583  12343.646946       .023722                    
P 28 -22685.540928 -12209.937306  -6821.900348     -4.312315                    
V 28  -5508.684247  -7551.484841  29976.902917      -.006718                    
P 29 -10649.543484  21166.839646  11792.254340      4.882447                    
V 29    122.620274 -14875.371295  27645.236622       .002233                    
P 30  15875.199769  19417.959822  -9226.090735     41.496948                    
V 30 -10795.268879  -4244.539824 -28388.178971       .011185                    
P 31  25130.767033  -7943.421198  -3408.757340     13.803792                    
V 31  -3175.081246   4215.905264 -31371.485187      -.011371                    
P 32  18084.251921   -947.104950 -18913.813387    545.945789                    
V 32  17606.372435  17842.162880  15684.345700       .192985                    
EOF
